"spkid","full_name","name","neo","pha","diameter","e","a","q","i","om","w","ma","ad","tp"
3445602,"       (2009 CS)",,Y,Y,,0.5954,2.007,0.812,3.21,250.01,170.89,208.15,3.20,2461038.68
3445668,"       (2009 CC3)",,Y,Y,,0.5347,2.207,1.027,11.31,194.75,15.83,272.23,3.39,2460892.46
3447934,"       (2009 DR3)",,Y,Y,,0.5596,1.978,0.871,4.07,344.51,237.73,208.93,3.09,2461026.99
3448068,"       (2009 DS10)",,Y,Y,,0.5866,2.207,0.912,7.51,313.06,123.41,294.18,3.50,2460819.41
3448961,"       (2009 DZ42)",,Y,Y,,0.5828,2.447,1.021,13.10,295.11,183.43,36.70,3.87,2460457.93
3448993,"       (2009 DM45)",,Y,Y,,0.3673,1.172,0.742,26.69,336.32,90.89,164.27,1.60,2460388.95
3449054,"       (2009 DL46)",,Y,Y,,0.3073,1.461,1.012,7.92,63.37,160.39,281.84,1.91,2460740.56
3449591,"       (2009 EP2)",,Y,Y,,0.3562,0.927,0.597,27.70,175.16,129.83,75.50,1.26,2460532.13
3451789,"       (2009 FE)",,Y,Y,,0.6137,2.529,0.977,1.90,39.65,201.23,297.08,4.08,2460857.18
3451790,"       (2009 FF)",,Y,Y,,0.4684,1.474,0.784,0.98,265.80,11.12,205.93,2.16,2460880.17
3454731,"       (2009 FU4)",,Y,Y,,0.6159,2.382,0.915,12.91,42.10,233.13,52.77,3.85,2460403.72
3454735,"       (2009 FY4)",,Y,Y,0.129,0.3275,1.013,0.681,20.98,162.61,244.68,208.16,1.34,2460757.47
3455137,"       (2009 FU23)",,Y,Y,,0.2822,0.8372,0.601,13.90,57.74,315.29,280.80,1.07,2460662.06
3457438,"       (2009 HV2)",,Y,Y,,0.4991,1.642,0.822,6.73,37.97,261.05,95.74,2.46,2460396.19
3457840,"       (2009 HA21)",,Y,Y,,0.7292,1.461,0.396,6.41,205.40,219.91,339.66,2.53,2460636.92
3457843,"       (2009 HD21)",,Y,Y,,0.6883,2.769,0.863,18.65,179.16,134.29,103.38,4.67,2460117.22
3458941,"       (2009 HV58)",,Y,Y,,0.5841,1.984,0.825,46.97,69.70,50.91,229.01,3.14,2460971.94
3459429,"       (2009 JR)",,Y,Y,,0.4896,1.73,0.883,8.41,225.36,295.22,305.79,2.58,2460725.66
3461188,"       (2009 KD3)",,Y,Y,,0.6760,2.17,0.703,7.93,39.30,116.23,17.88,3.64,2454919.51
3461189,"       (2009 KE3)",,Y,Y,,0.7026,2.67,0.794,5.86,13.77,319.93,181.22,4.55,2461391.78
3462015,"       (2009 KK8)",,Y,Y,,0.5942,2.403,0.975,2.27,120.48,194.14,37.79,3.83,2460457.69
3463079,"       (2009 LQ)",,Y,Y,,0.5904,1.536,0.629,5.34,114.48,244.15,348.82,2.44,2460622.11
3463175,"       (2009 LW2)",,Y,Y,,0.2594,1.206,0.893,33.15,101.10,41.09,321.64,1.52,2460652.02
3464007,"       (2009 OF)",,Y,Y,,0.5990,2.352,0.943,9.37,126.86,218.07,67.33,3.76,2460354.02
3466069,"       (2009 QJ9)",,Y,Y,,0.6207,2.717,1.031,19.27,157.78,202.23,125.68,4.40,2460029.37
3467085,"       (2009 RV1)",,Y,Y,,0.6376,2.698,0.978,1.89,2.00,56.46,134.80,4.42,2459994.46
3467148,"       (2009 RZ3)",,Y,Y,,0.6747,2.211,0.719,52.65,344.68,114.19,181.78,3.70,2461195.01
3467177,"       (2009 SB)",,Y,Y,,0.8007,2.213,0.441,5.45,215.07,271.80,182.91,3.99,2461192.07
3467187,"       (2009 SN)",,Y,Y,,0.3219,1.428,0.968,26.47,344.66,37.75,345.72,1.89,2455117.22
3467355,"       (2009 SW17)",,Y,Y,,0.5982,2.013,0.809,8.40,42.44,42.18,77.09,3.22,2460377.13
3467394,"       (2009 SG18)",,Y,Y,,0.6738,3.04,0.992,57.84,177.39,204.62,294.71,5.09,2460951.62
3471590,"       (2009 TK12)",,Y,Y,,0.5844,1.695,0.705,3.84,245.51,245.54,249.39,2.69,2460848.23
3471663,"       (2009 UQ)",,Y,Y,,0.5346,1.785,0.831,14.50,8.68,306.05,124.58,2.74,2460299.02
3472299,"       (2009 UY17)",,Y,Y,,0.3163,0.8186,0.560,42.06,202.07,30.57,220.50,1.08,2460705.32
3475236,"       (2009 VW)",,Y,Y,,0.5626,1.44,0.630,7.16,54.39,256.11,266.25,2.25,2460764.90
3475238,"       (2009 VZ)",,Y,Y,,0.3253,1.413,0.953,12.31,233.65,221.51,300.40,1.87,2460702.02
3476134,"       (2009 VA26)",,Y,Y,,0.3833,1.513,0.933,38.96,230.70,307.46,283.21,2.09,2460745.50
3476771,"       (2009 VQ44)",,Y,Y,,0.7265,1.345,0.368,29.80,46.78,237.92,35.91,2.32,2455098.69
3477574,"       (2009 WJ1)",,Y,Y,,0.6784,2.455,0.789,0.62,276.55,195.14,296.40,4.12,2460848.72
3483055,"       (2009 XV)",,Y,Y,,0.6874,2.568,0.803,3.34,44.51,327.15,229.50,4.33,2461145.34
3483513,"       (2009 XT6)",,Y,Y,,0.7676,2.18,0.507,5.74,264.90,82.03,235.93,3.85,2461005.70
3485260,"       (2010 AF30)",,Y,Y,,0.3719,1.325,0.832,3.06,62.39,162.90,171.05,1.82,2460335.74
54180389,"       (2010 BV132)",,Y,Y,,0.1798,1.228,1.007,17.28,255.00,186.54,339.73,1.45,2460628.48
3508127,"       (2010 CN44)",,Y,Y,0.340,0.6712,2.866,0.943,3.86,188.75,303.96,13.91,4.79,2460532.01
3508146,"       (2010 DO)",,Y,Y,0.149,0.7458,1.612,0.410,11.94,154.43,116.82,31.90,2.82,2460534.23
3511311,"       (2010 DG77)",,Y,Y,,0.6501,2.742,0.959,16.73,290.02,196.11,5.05,4.52,2455223.22
3511355,"       (2010 DJ77)",,Y,Y,0.277,0.2107,0.9547,0.754,24.74,286.71,103.75,7.58,1.16,2460593.33
3511892,"       (2010 EF44)",,Y,Y,,0.8884,2.187,0.244,38.01,173.69,235.12,199.15,4.13,2461128.31
3511894,"       (2010 EK44)",,Y,Y,,0.7722,2.837,0.646,11.26,180.67,107.70,359.20,5.03,2460604.38
3512281,"       (2010 FQ)",,Y,Y,0.285,0.3563,1.527,0.983,10.56,140.43,359.52,276.34,2.07,2460760.65
3513382,"       (2010 FF10)",,Y,Y,0.095,0.6317,2.38,0.876,5.08,166.09,105.33,328.95,3.88,2460716.13
3514551,"       (2010 FC81)",,Y,Y,0.402,0.6231,2.677,1.009,1.68,144.30,63.64,110.54,4.35,2460109.23
3515065,"       (2010 GS7)",,Y,Y,0.203,0.6591,2.694,0.918,9.12,190.83,57.05,89.07,4.47,2460200.94
3515377,"       (2010 GU21)",,Y,Y,0.510,0.5633,2.183,0.953,3.18,57.17,201.20,167.50,3.41,2460052.26
3518309,"       (2010 HY22)",,Y,Y,,0.7242,3.655,1.008,44.15,19.19,343.29,73.66,6.30,2460078.31
3519490,"       (2010 JG)",,Y,Y,0.192,0.3196,1.19,0.810,23.31,49.72,292.02,325.61,1.57,2460645.80
3520202,"       (2010 JK33)",,Y,Y,0.208,0.6101,2.232,0.870,4.04,28.54,289.86,94.39,3.59,2460281.15
3520666,"       (2010 JV34)",,Y,Y,0.226,0.5441,1.723,0.786,7.21,225.32,87.03,111.43,2.66,2460344.82
3520759,"       (2010 JJ41)",,Y,Y,,0.6686,1.069,0.354,3.21,50.65,28.89,94.16,1.78,2460494.97
3521439,"       (2010 JN71)",,Y,Y,0.214,0.5903,2.381,0.976,17.74,62.41,185.59,325.80,3.79,2460728.01
3522155,"       (2010 JE88)",,Y,Y,,0.7640,2.109,0.498,10.73,224.59,260.23,271.36,3.72,2460875.98
3523945,"       (2010 KQ10)",,Y,Y,,0.6620,2.384,0.806,6.70,243.85,287.77,352.73,3.96,2460627.63
3523946,"       (2010 KR10)",,Y,Y,,0.5863,2.168,0.897,1.05,94.46,233.01,165.18,3.44,2460065.50
54114211,"       (2010 KD149)",,Y,Y,0.213,0.2118,0.8889,0.701,14.23,324.42,131.04,204.95,1.08,2460732.33
3529053,"       (2010 LK34)",,Y,Y,0.108,0.8073,1.829,0.352,5.32,130.07,249.31,264.88,3.31,2460839.23
3529599,"       (2010 LZ63)",,Y,Y,0.877,0.7610,1.89,0.452,13.87,307.00,79.56,163.69,3.33,2460169.04
3536555,"       (2010 MU112)",,Y,Y,0.599,0.5400,1.756,0.808,48.04,261.10,119.22,25.21,2.70,2460540.98
54205433,"       (2010 MD127)",,Y,Y,,0.5998,1.768,0.708,19.70,19.91,112.79,66.20,2.83,2460442.55
54148940,"       (2010 NT81)",,Y,Y,,0.2778,1.33,0.961,10.47,329.89,5.07,77.67,1.70,2460479.65
3541751,"       (2010 ON101)",,Y,Y,0.238,0.4095,1.629,0.962,9.31,251.57,8.14,317.67,2.30,2460689.78
3542519,"       (2010 PK9)",,Y,Y,0.143,0.6758,0.6821,0.221,12.59,306.51,195.64,214.52,1.14,2460683.64
3547804,"       (2010 RA147)",,Y,Y,,0.6542,2.161,0.747,5.82,8.22,116.76,121.05,3.57,2460210.43
3552292,"       (2010 RF181)",,Y,Y,,0.5453,2.21,1.005,6.22,51.07,2.45,84.92,3.42,2460317.34
3548660,"       (2010 TP54)",,Y,Y,,0.5958,2.392,0.967,3.47,351.53,67.21,273.24,3.82,2460926.09
3549033,"       (2010 TP55)",,Y,Y,,0.6694,2.349,0.777,3.33,232.77,69.59,344.96,3.92,2460655.45
3549036,"       (2010 TS149)",,Y,Y,,0.3900,1.498,0.913,3.43,128.11,13.33,144.64,2.08,2460331.56
3549391,"       (2010 TU149)",,Y,Y,0.603,0.8247,2.213,0.388,1.96,58.89,92.65,84.04,4.04,2460319.84
3549694,"       (2010 TX168)",,Y,Y,,0.5235,1.483,0.707,26.02,32.92,101.55,224.79,2.26,2460848.29
3550042,"       (2010 UY6)",,Y,Y,0.712,0.6166,2.649,1.016,19.88,9.03,20.39,84.93,4.28,2460228.96
3550057,"       (2010 UG7)",,Y,Y,,0.7733,2.238,0.507,15.99,25.84,102.05,48.62,3.97,2460435.35
3550082,"       (2010 UQ7)",,Y,Y,,0.6783,2.454,0.789,4.51,236.83,76.59,243.70,4.12,2461054.07
3550084,"       (2010 US7)",,Y,Y,,0.6383,1.962,0.710,55.19,240.87,247.92,9.28,3.21,2460574.61
3550127,"       (2010 UK8)",,Y,Y,,0.6971,2.19,0.663,1.86,11.60,135.41,87.78,3.72,2460311.87
3550233,"       (2010 VZ)",,Y,Y,0.380,0.5922,2.447,0.998,8.46,181.93,215.64,227.50,3.90,2461114.97
3550464,"       (2010 VT11)",,Y,Y,0.152,0.6110,1.754,0.682,2.48,249.36,65.76,22.08,2.83,2460548.46
3551067,"       (2010 VD72)",,Y,Y,0.124,0.1812,0.9184,0.752,19.19,224.07,310.25,188.13,1.08,2460753.98
3552655,"       (2010 WV8)",,Y,Y,,0.6720,2.126,0.697,8.44,55.12,288.13,188.43,3.55,2461140.09
3552661,"       (2010 WZ8)",,Y,Y,,0.5035,1.973,0.980,3.70,284.22,200.48,346.56,2.97,2460638.27
3553169,"       (2010 XC15)",,Y,Y,,0.4199,0.7324,0.425,8.24,94.40,158.11,186.57,1.04,2460710.79
3553279,"       (2010 XB24)",,Y,Y,,0.4392,1.286,0.721,5.53,263.28,285.91,117.93,1.85,2460426.02
3553283,"       (2010 XC25)",,Y,Y,,0.5279,1.743,0.823,2.97,303.85,237.34,334.71,2.66,2460659.56
3553704,"       (2010 XA68)",,Y,Y,,0.3013,1.157,0.809,59.28,74.32,107.46,329.14,1.51,2460639.49
3553986,"       (2010 XP69)",,Y,Y,0.273,0.3427,1.523,1.001,14.59,199.85,197.32,147.85,2.05,2460318.55
3553994,"       (2010 YB)",,Y,Y,,0.4945,1.822,0.921,3.60,314.46,94.54,237.61,2.72,2460905.99
3555162,"       (2011 AM24)",,Y,Y,0.511,0.1489,1.177,1.001,9.14,127.13,215.29,36.53,1.35,2460553.20
3555165,"       (2011 AT26)",,Y,Y,,0.6971,2.373,0.719,1.75,243.23,125.07,296.09,4.03,2460837.58
3555653,"       (2011 BX10)",,Y,Y,,0.6455,2.812,0.997,9.77,79.08,348.67,326.43,4.63,2460761.12
3555763,"       (2011 BY18)",,Y,Y,,0.7834,2.263,0.490,3.65,135.19,240.14,22.22,4.04,2460523.73
3558389,"       (2011 BE38)",,Y,Y,,0.7110,2.63,0.760,8.16,321.35,302.65,52.36,4.50,2460373.91
3556126,"       (2011 BM45)",,Y,Y,,0.8033,1.921,0.378,5.32,302.18,63.29,81.25,3.46,2460381.02
3557481,"       (2011 BO59)",,Y,Y,,0.4649,1.829,0.979,4.75,343.52,221.38,164.94,2.68,2460186.49
3557636,"       (2011 BT59)",,Y,Y,,0.9450,2.493,0.137,3.67,36.24,305.92,192.77,4.85,2461268.32
3556208,"       (2011 CG2)",,Y,Y,,0.1584,1.177,0.991,2.76,293.17,283.95,195.94,1.36,2460813.13
